COSMOS 2151             
1 21422U 91042A   25330.80956248  .00002627  00000+0  21098-3 0  9991
2 21422  82.4969 182.8532 0013814  50.6533 309.5913 14.99602634847776
SL-14 R/B               
1 21423U 91042B   25330.37208250  .00000560  00000+0  68066-4 0  9998
2 21423  82.4916 317.0737 0016046 216.4530 143.5593 14.81716237837772
ERS-1                   
1 21574U 91050A   25330.60932501  .00000383  00000+0  13719-3 0  9990
2 21574  98.7915 341.2604 0032581 146.5913 213.7338 14.39346205800909
ARIANE 40 R/B           
1 21610U 91050F   25330.76664007  .00000439  00000+0  14436-3 0  9990
2 21610  98.2187  21.7721 0003735  44.4481 315.7009 14.42793306804152
INTERCOSMOS 25          
1 21819U 91086A   25330.53588301  .00001288  00000+0  25354-3 0  9991
2 21819  82.6066  12.3742 1487450 339.3362  15.3131 12.11644502484194
SL-8 R/B                
1 21876U 92008B   25330.54751196  .00000152  00000+0  13973-3 0  9997
2 21876  82.9267 344.4919 0035952  63.9064  54.2112 13.75953796695231
SL-8 R/B                
1 21938U 92020B   25330.76401372  .00000076  00000+0  62899-4 0  9999
2 21938  82.9316 230.1792 0027940 223.5568 191.0148 13.75523936686986
USA 81                  
1 21949U 92023A   25330.68680869  .00000213  00000+0  71474-4 0  9997
2 21949  85.0094 190.8332 0002152  65.8006 294.3411 14.32318505 80042
COSMOS 2219             
1 22219U 92076A   25330.73753190 -.00000211  00000+0 -85899-4 0  9996
2 22219  71.0605 233.2823 0018570 349.3409  10.7317 14.14066249703829
SL-16 R/B               
1 22220U 92076B   25330.71240726  .00000305  00000+0  17579-3 0  9993
2 22220  71.0015  45.2926 0015091 254.9195 276.2183 14.16838061707240
COSMOS 2221             
1 22236U 92080A   25330.62816044  .00002534  00000+0  22517-3 0  9991
2 22236  82.5055  17.7450 0014795 173.0218 187.1212 14.95671325765388
SL-16 R/B               
1 22285U 92093B   25330.77239544 -.00000213  00000+0 -84674-4 0  9996
2 22285  71.0213 220.3131 0002005 120.1851 239.9471 14.15427340698595
