CCSDS_OMM_VERS = 2.0
CREATION_DATE  = 
ORIGINATOR     = 

OBJECT_NAME    = COSMOS 2151
OBJECT_ID      = 1991-042A
CENTER_NAME    = EARTH
REF_FRAME      = TEME
TIME_SYSTEM    = UTC
MEAN_ELEMENT_THEORY = SGP/SGP4

EPOCH          = 2025-11-26T19:25:46.198272
MEAN_MOTION    = 14.99602634
ECCENTRICITY   = .0013814
INCLINATION    = 82.4969
RA_OF_ASC_NODE = 182.8532
ARG_OF_PERICENTER = 50.6533
MEAN_ANOMALY   = 309.5913

EPHEMERIS_TYPE = 0
CLASSIFICATION_TYPE = U
NORAD_CAT_ID   = 21422
ELEMENT_SET_NO = 999
REV_AT_EPOCH   = 84777
BSTAR          = .21098E-3
MEAN_MOTION_DOT = .2627E-4
MEAN_MOTION_DDOT = 0

CCSDS_OMM_VERS = 2.0
CREATION_DATE  = 
ORIGINATOR     = 

OBJECT_NAME    = SL-14 R/B
OBJECT_ID      = 1991-042B
CENTER_NAME    = EARTH
REF_FRAME      = TEME
TIME_SYSTEM    = UTC
MEAN_ELEMENT_THEORY = SGP/SGP4

EPOCH          = 2025-11-26T08:55:47.928000
MEAN_MOTION    = 14.81716237
ECCENTRICITY   = .00160466
INCLINATION    = 82.4916
RA_OF_ASC_NODE = 317.0737
ARG_OF_PERICENTER = 216.4530
MEAN_ANOMALY   = 143.5593

EPHEMERIS_TYPE = 0
CLASSIFICATION_TYPE = U
NORAD_CAT_ID   = 21423
ELEMENT_SET_NO = 999
REV_AT_EPOCH   = 83777
BSTAR          = .6806625E-4
MEAN_MOTION_DOT = .56E-5
MEAN_MOTION_DDOT = 0

CCSDS_OMM_VERS = 2.0
CREATION_DATE  = 
ORIGINATOR     = 

OBJECT_NAME    = ERS-1
OBJECT_ID      = 1991-050A
CENTER_NAME    = EARTH
REF_FRAME      = TEME
TIME_SYSTEM    = UTC
MEAN_ELEMENT_THEORY = SGP/SGP4

EPOCH          = 2025-11-26T14:37:25.680864
MEAN_MOTION    = 14.39346205
ECCENTRICITY   = .0032581
INCLINATION    = 98.7915
RA_OF_ASC_NODE = 341.2604
ARG_OF_PERICENTER = 146.5913
MEAN_ANOMALY   = 213.7338

EPHEMERIS_TYPE = 0
CLASSIFICATION_TYPE = U
NORAD_CAT_ID   = 21574
ELEMENT_SET_NO = 999
REV_AT_EPOCH   = 80090
BSTAR          = .13719E-3
MEAN_MOTION_DOT = .383E-5
MEAN_MOTION_DDOT = 0

CCSDS_OMM_VERS = 2.0
CREATION_DATE  = 
ORIGINATOR     = 

OBJECT_NAME    = ARIANE 40 R/B
OBJECT_ID      = 1991-050F
CENTER_NAME    = EARTH
REF_FRAME      = TEME
TIME_SYSTEM    = UTC
MEAN_ELEMENT_THEORY = SGP/SGP4

EPOCH          = 2025-11-26T18:23:57.702048
MEAN_MOTION    = 14.42793306
ECCENTRICITY   = .0003735
INCLINATION    = 98.2187
RA_OF_ASC_NODE = 21.7721
ARG_OF_PERICENTER = 44.4481
MEAN_ANOMALY   = 315.7009

EPHEMERIS_TYPE = 0
CLASSIFICATION_TYPE = U
NORAD_CAT_ID   = 21610
ELEMENT_SET_NO = 999
REV_AT_EPOCH   = 80415
BSTAR          = .14436E-3
MEAN_MOTION_DOT = .439E-5
MEAN_MOTION_DDOT = 0

CCSDS_OMM_VERS = 2.0
CREATION_DATE  = 
ORIGINATOR     = 

OBJECT_NAME    = INTERCOSMOS 25
OBJECT_ID      = 1991-086A
CENTER_NAME    = EARTH
REF_FRAME      = TEME
TIME_SYSTEM    = UTC
MEAN_ELEMENT_THEORY = SGP/SGP4

EPOCH          = 2025-11-26T12:51:40.292064
MEAN_MOTION    = 12.11644502
ECCENTRICITY   = .148745
INCLINATION    = 82.6066
RA_OF_ASC_NODE = 12.3742
ARG_OF_PERICENTER = 339.3362
MEAN_ANOMALY   = 15.3131

EPHEMERIS_TYPE = 0
CLASSIFICATION_TYPE = U
NORAD_CAT_ID   = 21819
ELEMENT_SET_NO = 999
REV_AT_EPOCH   = 48419
BSTAR          = .25354E-3
MEAN_MOTION_DOT = .1288E-4
MEAN_MOTION_DDOT = 0

CCSDS_OMM_VERS = 2.0
CREATION_DATE  = 
ORIGINATOR     = 

OBJECT_NAME    = SL-8 R/B
OBJECT_ID      = 1992-008B
CENTER_NAME    = EARTH
REF_FRAME      = TEME
TIME_SYSTEM    = UTC
MEAN_ELEMENT_THEORY = SGP/SGP4

EPOCH          = 2025-11-26T13:08:25.033344
MEAN_MOTION    = 13.75953796
ECCENTRICITY   = .0035952
INCLINATION    = 82.9267
RA_OF_ASC_NODE = 344.4919
ARG_OF_PERICENTER = 63.9064
MEAN_ANOMALY   = 54.2112

EPHEMERIS_TYPE = 0
CLASSIFICATION_TYPE = U
NORAD_CAT_ID   = 21876
ELEMENT_SET_NO = 999
REV_AT_EPOCH   = 69523
BSTAR          = .13973E-3
MEAN_MOTION_DOT = .152E-5
MEAN_MOTION_DDOT = 0

CCSDS_OMM_VERS = 2.0
CREATION_DATE  = 
ORIGINATOR     = 

OBJECT_NAME    = SL-8 R/B
OBJECT_ID      = 1992-020B
CENTER_NAME    = EARTH
REF_FRAME      = TEME
TIME_SYSTEM    = UTC
MEAN_ELEMENT_THEORY = SGP/SGP4

EPOCH          = 2025-11-26T18:20:10.785408
MEAN_MOTION    = 13.75523936
ECCENTRICITY   = .002794
INCLINATION    = 82.9316
RA_OF_ASC_NODE = 230.1792
ARG_OF_PERICENTER = 223.5568
MEAN_ANOMALY   = 191.0148

EPHEMERIS_TYPE = 0
CLASSIFICATION_TYPE = U
NORAD_CAT_ID   = 21938
ELEMENT_SET_NO = 999
REV_AT_EPOCH   = 68698
BSTAR          = .62899E-4
MEAN_MOTION_DOT = .76E-6
MEAN_MOTION_DDOT = 0

CCSDS_OMM_VERS = 2.0
CREATION_DATE  = 
ORIGINATOR     = 

OBJECT_NAME    = USA 81
OBJECT_ID      = 1992-023A
CENTER_NAME    = EARTH
REF_FRAME      = TEME
TIME_SYSTEM    = UTC
MEAN_ELEMENT_THEORY = SGP/SGP4

EPOCH          = 2025-11-26T16:29:00.270816
MEAN_MOTION    = 14.32318505
ECCENTRICITY   = .0002152
INCLINATION    = 85.0094
RA_OF_ASC_NODE = 190.8332
ARG_OF_PERICENTER = 65.8006
MEAN_ANOMALY   = 294.3411

EPHEMERIS_TYPE = 0
CLASSIFICATION_TYPE = U
NORAD_CAT_ID   = 21949
ELEMENT_SET_NO = 999
REV_AT_EPOCH   = 8004
BSTAR          = .71474E-4
MEAN_MOTION_DOT = .213E-5
MEAN_MOTION_DDOT = 0

CCSDS_OMM_VERS = 2.0
CREATION_DATE  = 
ORIGINATOR     = 

OBJECT_NAME    = COSMOS 2219
OBJECT_ID      = 1992-076A
CENTER_NAME    = EARTH
REF_FRAME      = TEME
TIME_SYSTEM    = UTC
MEAN_ELEMENT_THEORY = SGP/SGP4

EPOCH          = 2025-11-26T17:42:02.756160
MEAN_MOTION    = 14.14066249
ECCENTRICITY   = .001857
INCLINATION    = 71.0605
RA_OF_ASC_NODE = 233.2823
ARG_OF_PERICENTER = 349.3409
MEAN_ANOMALY   = 10.7317

EPHEMERIS_TYPE = 0
CLASSIFICATION_TYPE = U
NORAD_CAT_ID   = 22219
ELEMENT_SET_NO = 999
REV_AT_EPOCH   = 70382
BSTAR          = -.85899E-4
MEAN_MOTION_DOT = -.211E-5
MEAN_MOTION_DDOT = 0

CCSDS_OMM_VERS = 2.0
CREATION_DATE  = 
ORIGINATOR     = 

OBJECT_NAME    = SL-16 R/B
OBJECT_ID      = 1992-076B
CENTER_NAME    = EARTH
REF_FRAME      = TEME
TIME_SYSTEM    = UTC
MEAN_ELEMENT_THEORY = SGP/SGP4

EPOCH          = 2025-11-26T17:05:51.987264
MEAN_MOTION    = 14.16838061
ECCENTRICITY   = .0015091
INCLINATION    = 71.0015
RA_OF_ASC_NODE = 45.2926
ARG_OF_PERICENTER = 254.9195
MEAN_ANOMALY   = 276.2183

EPHEMERIS_TYPE = 0
CLASSIFICATION_TYPE = U
NORAD_CAT_ID   = 22220
ELEMENT_SET_NO = 999
REV_AT_EPOCH   = 70724
BSTAR          = .17579E-3
MEAN_MOTION_DOT = .305E-5
MEAN_MOTION_DDOT = 0

CCSDS_OMM_VERS = 2.0
CREATION_DATE  = 
ORIGINATOR     = 

OBJECT_NAME    = COSMOS 2221
OBJECT_ID      = 1992-080A
CENTER_NAME    = EARTH
REF_FRAME      = TEME
TIME_SYSTEM    = UTC
MEAN_ELEMENT_THEORY = SGP/SGP4

EPOCH          = 2025-11-26T15:04:33.062016
MEAN_MOTION    = 14.95671325
ECCENTRICITY   = .0014795
INCLINATION    = 82.5055
RA_OF_ASC_NODE = 17.7450
ARG_OF_PERICENTER = 173.0218
MEAN_ANOMALY   = 187.1212

EPHEMERIS_TYPE = 0
CLASSIFICATION_TYPE = U
NORAD_CAT_ID   = 22236
ELEMENT_SET_NO = 999
REV_AT_EPOCH   = 76538
BSTAR          = .22517E-3
MEAN_MOTION_DOT = .2534E-4
MEAN_MOTION_DDOT = 0

CCSDS_OMM_VERS = 2.0
CREATION_DATE  = 
ORIGINATOR     = 

OBJECT_NAME    = SL-16 R/B
OBJECT_ID      = 1992-093B
CENTER_NAME    = EARTH
REF_FRAME      = TEME
TIME_SYSTEM    = UTC
MEAN_ELEMENT_THEORY = SGP/SGP4

EPOCH          = 2025-11-26T18:32:14.966016
MEAN_MOTION    = 14.15427340
ECCENTRICITY   = .0002005
INCLINATION    = 71.0213
RA_OF_ASC_NODE = 220.3131
ARG_OF_PERICENTER = 120.1851
MEAN_ANOMALY   = 239.9471

EPHEMERIS_TYPE = 0
CLASSIFICATION_TYPE = U
NORAD_CAT_ID   = 22285
ELEMENT_SET_NO = 999
REV_AT_EPOCH   = 69859
BSTAR          = -.84674E-4
MEAN_MOTION_DOT = -.213E-5
MEAN_MOTION_DDOT = 0

